NORAD_CAT_ID,OBJECT_NAME,OBJECT_TYPE,EPOCH,MEAN_MOTION,ECCENTRICITY,INCLINATION,RA_OF_ASC_NODE,ARG_OF_PERICENTER,MEAN_ANOMALY,BSTAR,MEAN_MOTION_DOT,MEAN_MOTION_DDOT,TLE_LINE0,TLE_LINE1,TLE_LINE2,SEMIMAJOR_AXIS,PERIOD,APOGEE,PERIGEE,DECAYED
52383.0,STARLINK-3811,PAYLOAD,2024-04-06 06:39:24,15.08835463,0.000143,53.218,92.3974,90.7413,269.3743,-8.1796e-06,-4.18e-06,0.0,0 STARLINK-3811,1 52383U 22045BE  24097.27737096 -.00000418  00000-0 -81796-5 0  9998,2 52383  53.2180  92.3974 0001430  90.7413 269.3743 15.08835463110029,6917.894,95.438,540.749,538.77,0.0
52383.0,STARLINK-3811,PAYLOAD,2024-04-06 22:33:16,15.08830581,0.0001319,53.2171,89.4234,99.8528,260.2613,-3.0928e-05,-7.8e-06,0.0,0 STARLINK-3811,1 52383U 22045BE  24097.93977529 -.00000780  00000-0 -30928-4 0  9990,2 52383  53.2171  89.4234 0001319  99.8528 260.2613 15.08830581110121,6917.909,95.438,540.687,538.862,0.0
52383.0,STARLINK-3811,PAYLOAD,2024-04-07 06:30:12,15.08832946,0.0001389,53.2176,87.9371,94.9876,265.1274,-3.7166e-05,-8.79e-06,0.0,0 STARLINK-3811,1 52383U 22045BE  24098.27097618 -.00000879  00000-0 -37166-4 0  9990,2 52383  53.2176  87.9371 0001389  94.9876 265.1274 15.08832946110179,6917.902,95.438,540.728,538.806,0.0
52383.0,STARLINK-3811,PAYLOAD,2024-04-07 16:02:31,15.08834005,0.0001358,53.2178,86.1527,92.9059,267.2089,2.0558e-05,3.9e-07,0.0,0 STARLINK-3811,1 52383U 22045BE  24098.66841548  .00000039  00000-0  20558-4 0  9995,2 52383  53.2178  86.1527 0001358  92.9059 267.2089 15.08834005110234,6917.899,95.438,540.703,538.824,0.0
52383.0,STARLINK-3811,PAYLOAD,2024-04-08 07:56:22,15.08836605,0.000137,53.2176,83.1792,92.8082,267.3067,0.00011,1.463e-05,0.0,0 STARLINK-3811,1 52383U 22045BE  24099.33081394  .00001463  00000-0  11000-3 0  9998,2 52383  53.2176  83.1792 0001370  92.8082 267.3067 15.08836605110338,6917.891,95.438,540.704,538.808,0.0
52383.0,STARLINK-3811,PAYLOAD,2024-04-09 07:47:09,15.08843634,0.0001383,53.2175,78.7184,91.1204,268.9947,0.00013613,1.879e-05,0.0,0 STARLINK-3811,1 52383U 22045BE  24100.32441125  .00001879  00000-0  13613-3 0  9995,2 52383  53.2175  78.7184 0001383  91.1204 268.9947 15.08843634110484,6917.869,95.437,540.691,538.778,0.0
52383.0,STARLINK-3811,PAYLOAD,2024-04-09 15:44:05,15.08839551,0.0001476,53.2178,77.231,83.8266,276.2894,5.8499e-05,6.43e-06,0.0,0 STARLINK-3811,1 52383U 22045BE  24100.65561704  .00000643  00000-0  58499-4 0  9997,2 52383  53.2178  77.2310 0001476  83.8266 276.2894 15.08839551110533,6917.882,95.438,540.768,538.726,0.0
52383.0,STARLINK-3811,PAYLOAD,2024-04-09 22:05:38,15.08835133,0.0001547,53.2176,76.0417,85.0014,275.1155,9.4976e-05,1.224e-05,0.0,0 STARLINK-3811,1 52383U 22045BE  24100.92057903  .00001224  00000-0  94976-4 0  9994,2 52383  53.2176  76.0417 0001547  85.0014 275.1155 15.08835133110574,6917.895,95.438,540.83,538.69,0.0
52383.0,STARLINK-3811,PAYLOAD,2024-04-10 04:27:10,15.08838025,0.000138,53.2161,74.8504,100.3582,259.7566,3.1893e-05,2.2e-06,0.0,0 STARLINK-3811,1 52383U 22045BE  24101.18553801  .00000220  00000-0  31893-4 0  9995,2 52383  53.2161  74.8504 0001380 100.3582 259.7566 15.08838025110619,6917.886,95.438,540.706,538.797,0.0
52383.0,STARLINK-3811,PAYLOAD,2024-04-10 21:56:24,15.08842842,0.0001322,53.2174,71.5809,96.6684,263.4458,1.8135e-05,1e-08,0.0,0 STARLINK-3811,1 52383U 22045BE  24101.91417524  .00000001  00000-0  18135-4 0  9998,2 52383  53.2174  71.5809 0001322  96.6684 263.4458 15.08842842110727,6917.872,95.437,540.651,538.822,0.0
52383.0,STARLINK-3811,PAYLOAD,2024-04-11 04:17:56,15.08848552,0.0001357,53.2176,70.3906,105.5797,254.5345,2.2181e-05,6.5e-07,0.0,0 STARLINK-3811,1 52383U 22045BE  24102.17913059  .00000065  00000-0  22181-4 0  9997,2 52383  53.2176  70.3906 0001357 105.5797 254.5345 15.08848552110761,6917.854,95.437,540.658,538.78,0.0
52383.0,STARLINK-3811,PAYLOAD,2024-04-11 15:25:39,15.08842102,0.0001389,53.2173,68.3091,96.3227,263.7923,-2.0117e-05,-6.08e-06,0.0,0 STARLINK-3811,1 52383U 22045BE  24102.64281548 -.00000608  00000-0 -20117-4 0  9992,2 52383  53.2173  68.3091 0001389  96.3227 263.7923 15.08842102110837,6917.874,95.437,540.7,538.778,0.0
52383.0,STARLINK-3811,PAYLOAD,2024-04-12 04:08:44,15.08840453,0.000135,53.2176,65.9301,95.8603,264.2543,3.7582e-05,3.1e-06,0.0,0 STARLINK-3811,1 52383U 22045BE  24103.17273588  .00000310  00000-0  37582-4 0  9998,2 52383  53.2176  65.9301 0001350  95.8603 264.2543 15.08840453110917,6917.879,95.438,540.678,538.81,0.0
52383.0,STARLINK-3811,PAYLOAD,2024-04-12 07:19:30,15.08840226,0.0001251,53.2175,65.3355,93.7873,266.3263,5.0518e-05,5.16e-06,0.0,0 STARLINK-3811,1 52383U 22045BE  24103.30521543  .00000516  00000-0  50518-4 0  9992,2 52383  53.2175  65.3355 0001251  93.7873 266.3263 15.08840226110937,6917.88,95.438,540.61,538.879,0.0
52383.0,STARLINK-3811,PAYLOAD,2024-04-13 07:10:17,15.0883941,0.000137,53.218,60.8742,100.6223,259.4923,1.1234e-05,-1.09e-06,0.0,0 STARLINK-3811,1 52383U 22045BE  24104.29881814 -.00000109  00000-0  11234-4 0  9992,2 52383  53.2180  60.8742 0001370 100.6223 259.4923 15.08839410111088,6917.882,95.438,540.695,538.799,0.0
52383.0,STARLINK-3811,PAYLOAD,2024-04-14 03:50:18,15.08842546,0.0001384,53.2188,57.0073,102.0326,258.0821,7.9841e-05,9.83e-06,0.0,0 STARLINK-3811,1 52383U 22045BE  24105.15993538  .00000983  00000-0  79841-4 0  9992,2 52383  53.2188  57.0073 0001384 102.0326 258.0821 15.08842546111217,6917.873,95.437,540.695,538.78,0.0
52383.0,STARLINK-3811,PAYLOAD,2024-04-15 02:05:42,15.08837802,0.0001458,53.2195,52.845,101.1471,258.9685,4.2218e-05,3.84e-06,0.0,0 STARLINK-3811,1 52383U 22045BE  24106.08730228  .00000384  00000-0  42218-4 0  9993,2 52383  53.2195  52.8450 0001458 101.1471 258.9685 15.08837802111351,6917.887,95.438,540.761,538.743,0.0
52383.0,STARLINK-3811,PAYLOAD,2024-04-15 19:34:57,15.0884322,0.0001749,53.2196,49.5747,98.6222,261.4969,-3.1112e-05,-7.83e-06,0.0,0 STARLINK-3811,1 52383U 22045BE  24106.81594203 -.00000783  00000-0 -31112-4 0  9991,2 52383  53.2196  49.5747 0001749  98.6222 261.4969 15.08843220111468,6917.871,95.437,540.945,538.526,0.0
52383.0,STARLINK-3811,PAYLOAD,2024-04-16 05:07:15,15.0885556,0.0001359,53.2189,47.7874,98.8123,261.3023,0.00012173,1.651e-05,0.0,0 STARLINK-3811,1 52383U 22045BE  24107.21336899  .00001651  00000-0  12173-3 0  9999,2 52383  53.2189  47.7874 0001359  98.8123 261.3023 15.08855560111527,6917.833,95.437,540.638,538.758,0.0
52383.0,STARLINK-3811,PAYLOAD,2024-04-16 13:04:11,15.08850767,0.0001367,53.2191,46.3035,98.034,262.0807,4.2741e-05,3.93e-06,0.0,0 STARLINK-3811,1 52383U 22045BE  24107.54457274  .00000393  00000-0  42741-4 0  9993,2 52383  53.2191  46.3035 0001367  98.0340 262.0807 15.08850767111573,6917.847,95.437,540.658,538.767,0.0
52383.0,STARLINK-3811,PAYLOAD,2024-04-17 04:57:59,15.08879823,0.000139,53.2194,43.3332,95.2066,264.9085,0.00033979,5.13e-05,0.0,0 STARLINK-3811,1 52383U 22045BE  24108.20694336  .00005130  00000-0  33979-3 0  9995,2 52383  53.2194  43.3332 0001390  95.2066 264.9085 15.08879823111677,6917.759,95.435,540.585,538.662,0.0
52383.0,STARLINK-3811,PAYLOAD,2024-04-18 04:48:50,15.08835647,0.0001445,53.2192,38.8666,116.1942,243.9199,-0.00013811,-2.485e-05,0.0,0 STARLINK-3811,1 52383U 22045BE  24109.20058556 -.00002485  00000-0 -13811-3 0  9999,2 52383  53.2192  38.8666 0001445 116.1942 243.9199 15.08835647111827,6917.894,95.438,540.758,538.759,0.0
52383.0,STARLINK-3811,PAYLOAD,2024-04-18 09:34:59,15.08839687,0.0001219,53.2181,37.9827,87.5808,272.5323,-0.00011239,-2.076e-05,0.0,0 STARLINK-3811,1 52383U 22045BE  24109.39930352 -.00002076  00000-0 -11239-3 0  9990,2 52383  53.2181  37.9827 0001219  87.5808 272.5323 15.08839687111853,6917.881,95.438,540.59,538.903,0.0
52383.0,STARLINK-3811,PAYLOAD,2024-04-19 04:39:35,15.08863781,0.0001488,53.2189,34.4083,117.9399,242.1743,-9.9146e-05,-1.867e-05,0.0,0 STARLINK-3811,1 52383U 22045BE  24110.19416535 -.00001867  00000-0 -99146-4 0  9993,2 52383  53.2189  34.4083 0001488 117.9399 242.1743 15.08863781111972,6917.808,95.436,540.702,538.643,0.0
52383.0,STARLINK-3811,PAYLOAD,2024-04-19 06:14:58,15.08869638,0.0001253,53.219,34.1145,95.1377,264.9758,-4.8815e-05,-1.065e-05,0.0,0 STARLINK-3811,1 52383U 22045BE  24110.26040023 -.00001065  00000-0 -48815-4 0  9993,2 52383  53.2190  34.1145 0001253  95.1377 264.9758 15.08869638111989,6917.79,95.436,540.522,538.788,0.0
52383.0,STARLINK-3811,PAYLOAD,2024-04-19 22:08:52,15.08835779,0.0001517,53.2196,31.1455,60.098,300.0163,6.685e-05,7.76e-06,0.0,0 STARLINK-3811,1 52383U 22045BE  24110.92282794  .00000776  00000-0  66850-4 0  9994,2 52383  53.2196  31.1455 0001517  60.0980 300.0163 15.08835779112083,6917.893,95.438,540.808,538.709,0.0
52383.0,STARLINK-3811,PAYLOAD,2024-04-20 04:30:22,15.08869328,0.0001284,53.219,29.9508,89.9069,270.2071,0.00033166,4.999e-05,0.0,0 STARLINK-3811,1 52383U 22045BE  24111.18775584  .00004999  00000-0  33166-3 0  9991,2 52383  53.2190  29.9508 0001284  89.9069 270.2071 15.08869328112128,6917.791,95.436,540.544,538.768,0.0
52383.0,STARLINK-3811,PAYLOAD,2024-04-20 21:59:40,15.08831908,0.0001297,53.2199,26.6821,85.3664,274.7476,-0.00019422,-3.377e-05,0.0,0 STARLINK-3811,1 52383U 22045BE  24111.91643951 -.00003377  00000-0 -19422-3 0  9994,2 52383  53.2199  26.6821 0001297  85.3664 274.7476 15.08831908112237,6917.905,95.438,540.667,538.873,0.0
52383.0,STARLINK-3811,PAYLOAD,2024-04-21 04:21:12,15.08838411,0.0001545,53.2199,25.489,96.8831,263.2337,-0.00012988,-2.354e-05,0.0,0 STARLINK-3811,1 52383U 22045BE  24112.18139340 -.00002354  00000-0 -12988-3 0  9990,2 52383  53.2199  25.4890 0001545  96.8831 263.2337 15.08838411112278,6917.885,95.438,540.819,538.681,0.0
52383.0,STARLINK-3811,PAYLOAD,2024-04-21 05:56:34,15.0884752,0.0001323,53.2195,25.1953,92.0592,268.0552,-4.7103e-05,-1.038e-05,0.0,0 STARLINK-3811,1 52383U 22045BE  24112.24762558 -.00001038  00000-0 -47103-4 0  9996,2 52383  53.2195  25.1953 0001323  92.0592 268.0552 15.08847520112281,6917.857,95.437,540.638,538.807,0.0
